{
  "type": "FeatureCollection",
  "features": [
    {
      "type": "Feature",
      "properties": {
        "norad_id": 27954,
        "name": "GALAXY 13 (HORIZONS-1)",
        "group": "intelsat",
        "lat": -0.7046051976214928,
        "lon": 35.86573853782197,
        "alt_km": 35793.467633694214,
        "timestamp": "2025-12-11T07:02:23.401258+00:00",
        "meta_object_name": "GALAXY 13 (HORIZONS-1)",
        "meta_object_id": "2003-044A",
        "meta_epoch": "2025-12-10T17:57:54.854784",
        "meta_mean_motion": 1.00270654,
        "meta_eccentricity": 0.00020347,
        "meta_inclination": 0.9303,
        "meta_ra_of_asc_node": 86.4957,
        "meta_arg_of_pericenter": 164.4206,
        "meta_mean_anomaly": 308.2812,
        "meta_ephemeris_type": 0,
        "meta_classification_type": "U",
        "meta_norad_cat_id": 27954,
        "meta_element_set_no": 999,
        "meta_rev_at_epoch": 4468,
        "meta_bstar": 0,
        "meta_mean_motion_dot": 1.37e-06,
        "meta_mean_motion_ddot": 0,
        "tle_line1": "1 27954U 03044A   25344.74855156  .00000137  00000+0  00000+0 0  9996",
        "tle_line2": "2 27954   0.9303  86.4957 0002034 164.4206 308.2812  1.00270654 44686"
      },
      "geometry": {
        "type": "Point",
        "coordinates": [
          35.86573853782197,
          -0.7046051976214928
        ]
      }
    },
    {
      "type": "Feature",
      "properties": {
        "norad_id": 28358,
        "name": "INTELSAT 10-02",
        "group": "intelsat",
        "lat": 0.011646413722065306,
        "lon": -175.13444014824083,
        "alt_km": 35788.96624616705,
        "timestamp": "2025-12-11T07:02:23.401270+00:00",
        "meta_object_name": "INTELSAT 10-02",
        "meta_object_id": "2004-022A",
        "meta_epoch": "2025-12-10T20:23:06.750816",
        "meta_mean_motion": 1.0027016,
        "meta_eccentricity": 0.00013667,
        "meta_inclination": 0.0243,
        "meta_ra_of_asc_node": 65.2701,
        "meta_arg_of_pericenter": 234.9439,
        "meta_mean_anomaly": 84.4151,
        "meta_ephemeris_type": 0,
        "meta_classification_type": "U",
        "meta_norad_cat_id": 28358,
        "meta_element_set_no": 999,
        "meta_rev_at_epoch": 7866,
        "meta_bstar": 0,
        "meta_mean_motion_dot": -6e-08,
        "meta_mean_motion_ddot": 0,
        "tle_line1": "1 28358U 04022A   25344.84938369 -.00000006  00000+0  00000+0 0  9997",
        "tle_line2": "2 28358   0.0243  65.2701 0001366 234.9439  84.4151  1.00270160 78665"
      },
      "geometry": {
        "type": "Point",
        "coordinates": [
          -175.13444014824083,
          0.011646413722065306
        ]
      }
    },
    {
      "type": "Feature",
      "properties": {
        "norad_id": 28626,
        "name": "XM-3 (RHYTHM)",
        "group": "intelsat",
        "lat": -0.13190700259440033,
        "lon": -52.96811508630447,
        "alt_km": 36155.30592755568,
        "timestamp": "2025-12-11T07:02:23.401283+00:00",
        "meta_object_name": "XM-3 (RHYTHM)",
        "meta_object_id": "2005-008A",
        "meta_epoch": "2025-12-10T20:58:33.357216",
        "meta_mean_motion": 0.98953207,
        "meta_eccentricity": 0.00014494,
        "meta_inclination": 0.17,
        "meta_ra_of_asc_node": 81.3404,
        "meta_arg_of_pericenter": 267.0513,
        "meta_mean_anomaly": 169.2739,
        "meta_ephemeris_type": 0,
        "meta_classification_type": "U",
        "meta_norad_cat_id": 28626,
        "meta_element_set_no": 999,
        "meta_rev_at_epoch": 4073,
        "meta_bstar": 0,
        "meta_mean_motion_dot": -2.06e-06,
        "meta_mean_motion_ddot": 0,
        "tle_line1": "1 28626U 05008A   25344.87399719 -.00000206  00000+0  00000+0 0  9995",
        "tle_line2": "2 28626   0.1700  81.3404 0001449 267.0513 169.2739  0.98953207 40730"
      },
      "geometry": {
        "type": "Point",
        "coordinates": [
          -52.96811508630447,
          -0.13190700259440033
        ]
      }
    },
    {
      "type": "Feature",
      "properties": {
        "norad_id": 28659,
        "name": "DIRECTV 8",
        "group": "intelsat",
        "lat": 0.01766304735109132,
        "lon": 66.82108978865558,
        "alt_km": 35798.55383695862,
        "timestamp": "2025-12-11T07:02:23.401294+00:00",
        "meta_object_name": "DIRECTV 8",
        "meta_object_id": "2005-019A",
        "meta_epoch": "2025-12-10T14:41:19.521600",
        "meta_mean_motion": 1.00272305,
        "meta_eccentricity": 0.00031388,
        "meta_inclination": 0.0102,
        "meta_ra_of_asc_node": 37.1466,
        "meta_arg_of_pericenter": 227.4425,
        "meta_mean_anomaly": 276.2856,
        "meta_ephemeris_type": 0,
        "meta_classification_type": "U",
        "meta_norad_cat_id": 28659,
        "meta_element_set_no": 999,
        "meta_rev_at_epoch": 7518,
        "meta_bstar": 0,
        "meta_mean_motion_dot": 5e-08,
        "meta_mean_motion_ddot": 0,
        "tle_line1": "1 28659U 05019A   25344.61203150  .00000005  00000+0  00000+0 0  9994",
        "tle_line2": "2 28659   0.0102  37.1466 0003138 227.4425 276.2856  1.00272305 75180"
      },
      "geometry": {
        "type": "Point",
        "coordinates": [
          66.82108978865558,
          0.01766304735109132
        ]
      }
    },
    {
      "type": "Feature",
      "properties": {
        "norad_id": 28702,
        "name": "GALAXY 28 (G-28)",
        "group": "intelsat",
        "lat": 0.7862472020323459,
        "lon": 97.1371522614804,
        "alt_km": 35797.41416705962,
        "timestamp": "2025-12-11T07:02:23.401306+00:00",
        "meta_object_name": "GALAXY 28 (G-28)",
        "meta_object_id": "2005-022A",
        "meta_epoch": "2025-12-10T19:58:09.141600",
        "meta_mean_motion": 1.00270813,
        "meta_eccentricity": 0.00027094,
        "meta_inclination": 2.8138,
        "meta_ra_of_asc_node": 81.3041,
        "meta_arg_of_pericenter": 181.9755,
        "meta_mean_anomaly": 27.3727,
        "meta_ephemeris_type": 0,
        "meta_classification_type": "U",
        "meta_norad_cat_id": 28702,
        "meta_element_set_no": 999,
        "meta_rev_at_epoch": 5008,
        "meta_bstar": 0,
        "meta_mean_motion_dot": -1.82e-06,
        "meta_mean_motion_ddot": 0,
        "tle_line1": "1 28702U 05022A   25344.83205025 -.00000182  00000+0  00000+0 0  9991",
        "tle_line2": "2 28702   2.8138  81.3041 0002709 181.9755  27.3727  1.00270813 50087"
      },
      "geometry": {
        "type": "Point",
        "coordinates": [
          97.1371522614804,
          0.7862472020323459
        ]
      }
    },
    {
      "type": "Feature",
      "properties": {
        "norad_id": 29236,
        "name": "GALAXY 16 (G-16)",
        "group": "intelsat",
        "lat": 0.009515506441770231,
        "lon": 86.83651956552144,
        "alt_km": 35797.190556009715,
        "timestamp": "2025-12-11T07:02:23.401318+00:00",
        "meta_object_name": "GALAXY 16 (G-16)",
        "meta_object_id": "2006-023A",
        "meta_epoch": "2025-12-10T19:55:01.941312",
        "meta_mean_motion": 1.00272369,
        "meta_eccentricity": 0.00026968,
        "meta_inclination": 0.027,
        "meta_ra_of_asc_node": 143.7753,
        "meta_arg_of_pericenter": 113.6715,
        "meta_mean_anomaly": 22.1014,
        "meta_ephemeris_type": 0,
        "meta_classification_type": "U",
        "meta_norad_cat_id": 29236,
        "meta_element_set_no": 999,
        "meta_rev_at_epoch": 7108,
        "meta_bstar": 0,
        "meta_mean_motion_dot": -1.22e-06,
        "meta_mean_motion_ddot": 0,
        "tle_line1": "1 29236U 06023A   25344.82988358 -.00000122  00000+0  00000+0 0  9996",
        "tle_line2": "2 29236   0.0270 143.7753 0002696 113.6715  22.1014  1.00272369 71086"
      },
      "geometry": {
        "type": "Point",
        "coordinates": [
          86.83651956552144,
          0.009515506441770231
        ]
      }
    },
    {
      "type": "Feature",
      "properties": {
        "norad_id": 29494,
        "name": "DIRECTV 9S",
        "group": "intelsat",
        "lat": 0.06619456441519159,
        "lon": 84.63630620307255,
        "alt_km": 35799.20824962747,
        "timestamp": "2025-12-11T07:02:23.401330+00:00",
        "meta_object_name": "DIRECTV 9S",
        "meta_object_id": "2006-043A",
        "meta_epoch": "2025-12-10T19:54:31.989024",
        "meta_mean_motion": 1.00271731,
        "meta_eccentricity": 0.00031004,
        "meta_inclination": 1.9355,
        "meta_ra_of_asc_node": 83.2292,
        "meta_arg_of_pericenter": 178.804,
        "meta_mean_anomaly": 15.1868,
        "meta_ephemeris_type": 0,
        "meta_classification_type": "U",
        "meta_norad_cat_id": 29494,
        "meta_element_set_no": 999,
        "meta_rev_at_epoch": 4949,
        "meta_bstar": 0,
        "meta_mean_motion_dot": -1.08e-06,
        "meta_mean_motion_ddot": 0,
        "tle_line1": "1 29494U 06043A   25344.82953691 -.00000108  00000+0  00000+0 0  9990",
        "tle_line2": "2 29494   1.9355  83.2292 0003100 178.8040  15.1868  1.00271731 49498"
      },
      "geometry": {
        "type": "Point",
        "coordinates": [
          84.63630620307255,
          0.06619456441519159
        ]
      }
    }
  ]
}